{
  "type": "FeatureCollection",
  "name": "imagens_pontos",
  "crs": {
    "type": "name",
    "properties": {
      "name": "urn:ogc:def:crs:OGC:1.3:CRS84"
    }
  },
  "features": [
    {
      "type": "Feature",
      "id": "TimePhoto_20260925_080916.jpg",
      "properties": {
        "nome": "TimePhoto_20260925_080916",
        "arquivo": "TimePhoto_20260925_080916.jpg",
        "caminho": "IMGS/TimePhoto_20260925_080916.jpg",
        "lat": -14.219853055555555,
        "lon": -39.09065805555556,
        "latlon": "-14.219853, -39.090658",
        "utm": "24L 490219 8427957",
        "utm_zone": 24,
        "utm_band": "L",
        "utm_easting": 490219,
        "utm_northing": 8427957,
        "utm_hemisphere": "S",
        "data": "25/09/2026",
        "horario": "08:09",
        "legenda": "Supressão vegetal semimecanizada, com seccionamento e movimentação do material lenhoso na faixa de intervenção",
        "hash_md5": null,
        "hash_sha256": "eb91783969514c7d808c4deda0c3bd15b784f778d07797c2159a6bd9835cf841",
        "origem_coordenadas": "ANDROID_EXIF_NATIVE",
        "exif_js_status": "GPS_OK",
        "exif_native_status": "GPS_OK",
        "exif_native_modo_leitura": "FALLBACK_URI_APOS_ERRO_ORIGINAL",
        "duplicata_local_sha256": false,
        "grupo_duplicata_sha256": ""
      },
      "geometry": {
        "type": "Point",
        "coordinates": [
          -39.09065805555556,
          -14.219853055555555
        ]
      }
    },
    {
      "type": "Feature",
      "id": "TimePhoto_20260925_081328.jpg",
      "properties": {
        "nome": "TimePhoto_20260925_081328",
        "arquivo": "TimePhoto_20260925_081328.jpg",
        "caminho": "IMGS/TimePhoto_20260925_081328.jpg",
        "lat": -14.219936666666667,
        "lon": -39.09086166666667,
        "latlon": "-14.219937, -39.090862",
        "utm": "24L 490197 8427948",
        "utm_zone": 24,
        "utm_band": "L",
        "utm_easting": 490197,
        "utm_northing": 8427948,
        "utm_hemisphere": "S",
        "data": "25/09/2026",
        "horario": "08:13",
        "legenda": "Inspeção arqueológica da superfície exposta durante a limpeza da faixa de intervenção após a supressão vegetal semimecanizada",
        "hash_md5": null,
        "hash_sha256": "69e0e4148bf82428eec2a0f96255165bc57b4ea5a065b06935df2af7178dcc0d",
        "origem_coordenadas": "ANDROID_EXIF_NATIVE",
        "exif_js_status": "GPS_OK",
        "exif_native_status": "GPS_OK",
        "exif_native_modo_leitura": "FALLBACK_URI_APOS_ERRO_ORIGINAL",
        "duplicata_local_sha256": false,
        "grupo_duplicata_sha256": ""
      },
      "geometry": {
        "type": "Point",
        "coordinates": [
          -39.09086166666667,
          -14.219936666666667
        ]
      }
    },
    {
      "type": "Feature",
      "id": "TimePhoto_20260925_154849.jpg",
      "properties": {
        "nome": "TimePhoto_20260925_154849",
        "arquivo": "TimePhoto_20260925_154849.jpg",
        "caminho": "IMGS/TimePhoto_20260925_154849.jpg",
        "lat": -14.220058333333334,
        "lon": -39.09175472222223,
        "latlon": "-14.220058, -39.091755",
        "utm": "24L 490101 8427934",
        "utm_zone": 24,
        "utm_band": "L",
        "utm_easting": 490101,
        "utm_northing": 8427934,
        "utm_hemisphere": "S",
        "data": "25/09/2026",
        "horario": "15:48",
        "legenda": "Escavação mecanizada na altura da estaca 1567, com carregamento do material removido durante o avanço do corte",
        "hash_md5": null,
        "hash_sha256": "466160a5598692fefc8ac9dcafda17aa60fe5375b2a2de2b05134383ef8ad290",
        "origem_coordenadas": "ANDROID_EXIF_NATIVE",
        "exif_js_status": "GPS_OK",
        "exif_native_status": "GPS_OK",
        "exif_native_modo_leitura": "FALLBACK_URI_APOS_ERRO_ORIGINAL",
        "duplicata_local_sha256": false,
        "grupo_duplicata_sha256": ""
      },
      "geometry": {
        "type": "Point",
        "coordinates": [
          -39.09175472222223,
          -14.220058333333334
        ]
      }
    },
    {
      "type": "Feature",
      "id": "TimePhoto_20260925_155333.jpg",
      "properties": {
        "nome": "TimePhoto_20260925_155333",
        "arquivo": "TimePhoto_20260925_155333.jpg",
        "caminho": "IMGS/TimePhoto_20260925_155333.jpg",
        "lat": -14.220138333333333,
        "lon": -39.091661388888895,
        "latlon": "-14.220138, -39.091661",
        "utm": "24L 490111 8427925",
        "utm_zone": 24,
        "utm_band": "L",
        "utm_easting": 490111,
        "utm_northing": 8427925,
        "utm_hemisphere": "S",
        "data": "25/09/2026",
        "horario": "15:53",
        "legenda": "Acompanhamento arqueológico da frente de escavação na estaca 1567, com exposição de novos níveis subsuperficiais decorrentes do rebaixamento progressivo do terreno.",
        "hash_md5": null,
        "hash_sha256": "170353e33e621b89f3678c274686ba2da0c45ffcbd3b189882d4e2d06d29f6d4",
        "origem_coordenadas": "ANDROID_EXIF_NATIVE",
        "exif_js_status": "GPS_OK",
        "exif_native_status": "GPS_OK",
        "exif_native_modo_leitura": "FALLBACK_URI_APOS_ERRO_ORIGINAL",
        "duplicata_local_sha256": false,
        "grupo_duplicata_sha256": ""
      },
      "geometry": {
        "type": "Point",
        "coordinates": [
          -39.091661388888895,
          -14.220138333333333
        ]
      }
    }
  ],
  "ficha": {
    "id": "MUI9H6I4",
    "dataCampo": "2026-09-25",
    "horaIni": "07:08",
    "horaFim": "16:12",
    "atividade": "Monitoramento",
    "categoria": "ADA",
    "projeto": "Rodovia Br 030/Ba: Entroncamento Ba 001 - Maraú – Ba",
    "localidade": "Maraú - BA",
    "empresaExecutora": "HAS CONSULTORIA",
    "fichaNumero": "6",
    "coordenadasTexto": null,
    "coordCampo": "Carlos Rocha",
    "arqResp": "Carlos Rocha",
    "cargoResponsavel": "Arqueólogo",
    "trecho": "Estacas 1572, 1574 e 1567",
    "tipoIntervencao": "Supressão Vegetal",
    "tipoIntervencaoOutro": "corte com escavação mecanizada, carregamento e transporte do material removido",
    "tipoAcao": "supressão vegetal semimecanizada, limpeza superficial, corte com escavação mecanizada, carregamento e transporte do material removido",
    "clima": "Nublado",
    "climaOutro": null,
    "vegetacao": null,
    "relevo": null,
    "solo": "Argiloso / Argilo-arenoso",
    "granulometria": "Média",
    "vestigios": "NAO",
    "tipoEvidencia": null,
    "materiaisEncontrados": null,
    "tipoMaterial": null,
    "tipoMaterialOutro": null,
    "coleta": "NAO",
    "amostrasAnalise": null,
    "fotografias": null,
    "croquis": null,
    "houveAlteracaoContexto": null,
    "medidasAdotadas": null,
    "interrupcaoAtividade": null,
    "motivoInterrupcao": null,
    "observacoesRecomendacoes": null,
    "observacoesExtras": null,
    "desc": "O acompanhamento arqueológico concentrou-se em duas frentes de intervenção ao longo da BR-030. Entre as estacas 1572 e 1574, foram acompanhadas as atividades de supressão vegetal semimecanizada e limpeza superficial, envolvendo o corte e seccionamento da vegetação, a movimentação dos elementos lenhosos de maior porte e a retirada e organização dos resíduos vegetais remanescentes, processo que promoveu a liberação progressiva da faixa de intervenção e ampliou a visibilidade das superfícies anteriormente recobertas; paralelamente, na altura da estaca 1567, foi acompanhada a continuidade dos serviços de corte, com escavação mecanizada, carregamento e transporte do material removido, avançando sobre cotas sucessivamente inferiores e expondo novos níveis subsuperficiais, circunstância que exigiu a manutenção da inspeção arqueológica sobre as superfícies recém-abertas, os perfis formados e os sedimentos mobilizados ao longo da operação.",
    "obs": null,
    "modeloDocx": "HAS_ACOMPANHAMENTO",
    "status": "DRAFT",
    "tradagens": [],
    "imagens_sem_gps": []
  },
  "app_restore": {
    "kind": "FichaCampoWebView_HAS_RECORD_BACKUP",
    "backupVersion": 1,
    "appVersion": "v24",
    "exportedAt": "2026-09-26T14:15:00.069Z",
    "dbName": "fichacampo_v_final_corrigido",
    "record": {
      "id": "MUI9H6I4",
      "status": "DRAFT",
      "createdAt": 1790419390078,
      "updatedAt": 1790431953531,
      "dataCampo": "2026-09-25",
      "horaIni": "07:08",
      "horaFim": "16:12",
      "atividade": "Monitoramento",
      "categoria": "ADA",
      "projeto": "Rodovia Br 030/Ba: Entroncamento Ba 001 - Maraú – Ba",
      "localidade": "Maraú - BA",
      "empresaExecutora": "HAS CONSULTORIA",
      "fichaNumero": "6",
      "coordenadasTexto": "",
      "coordCampo": "Carlos Rocha",
      "arqResp": "Carlos Rocha",
      "cargoResponsavel": "Arqueólogo",
      "tipoAcao": "supressão vegetal semimecanizada, limpeza superficial, corte com escavação mecanizada, carregamento e transporte do material removido",
      "trecho": "Estacas 1572, 1574 e 1567",
      "tipoIntervencao": "Supressão Vegetal",
      "tipoIntervencaoOutro": "corte com escavação mecanizada, carregamento e transporte do material removido",
      "clima": "Nublado",
      "climaOutro": "",
      "vegetacao": "",
      "relevo": "",
      "solo": "Argiloso / Argilo-arenoso",
      "granulometria": "Média",
      "vestigios": "NAO",
      "tipoEvidencia": "",
      "materiaisEncontrados": "",
      "tipoMaterial": "",
      "tipoMaterialOutro": "",
      "coleta": "NAO",
      "amostrasAnalise": "",
      "fotografias": "",
      "croquis": "",
      "houveAlteracaoContexto": "",
      "medidasAdotadas": "",
      "interrupcaoAtividade": "",
      "motivoInterrupcao": "",
      "observacoesRecomendacoes": "",
      "observacoesExtras": "",
      "desc": "O acompanhamento arqueológico concentrou-se em duas frentes de intervenção ao longo da BR-030. Entre as estacas 1572 e 1574, foram acompanhadas as atividades de supressão vegetal semimecanizada e limpeza superficial, envolvendo o corte e seccionamento da vegetação, a movimentação dos elementos lenhosos de maior porte e a retirada e organização dos resíduos vegetais remanescentes, processo que promoveu a liberação progressiva da faixa de intervenção e ampliou a visibilidade das superfícies anteriormente recobertas; paralelamente, na altura da estaca 1567, foi acompanhada a continuidade dos serviços de corte, com escavação mecanizada, carregamento e transporte do material removido, avançando sobre cotas sucessivamente inferiores e expondo novos níveis subsuperficiais, circunstância que exigiu a manutenção da inspeção arqueológica sobre as superfícies recém-abertas, os perfis formados e os sedimentos mobilizados ao longo da operação.",
      "obs": "",
      "modeloDocx": "HAS_ACOMPANHAMENTO",
      "tradagens": []
    },
    "images": [
      {
        "key": "MUI9H6I4_1790419661835_jbtg4jokf5",
        "recordId": "MUI9H6I4",
        "filename": "TimePhoto_20260925_080916.jpg",
        "dt": "2026:09:25 08:09:16",
        "coords": [
          -39.09065805555556,
          -14.219853055555555
        ],
        "utm": {
          "zone": 24,
          "band": "L",
          "easting": 490219,
          "northing": 8427957
        },
        "dir": null,
        "caption": "Supressão vegetal semimecanizada, com seccionamento e movimentação do material lenhoso na faixa de intervenção",
        "created": 1790419661835,
        "hashArquivo_sha256": "eb91783969514c7d808c4deda0c3bd15b784f778d07797c2159a6bd9835cf841",
        "gpsFonte": "ANDROID_EXIF_NATIVE",
        "exifJsStatus": "GPS_OK",
        "exifNativeStatus": "GPS_OK",
        "exifNativeModoLeitura": "FALLBACK_URI_APOS_ERRO_ORIGINAL",
        "exifNativeData": "2026:09:25 08:09:16",
        "exifNativeLat": -14.219853055555555,
        "exifNativeLon": -39.09065805555556
      },
      {
        "key": "MUI9H6I4_1790419662249_g2fj1d9t8qo",
        "recordId": "MUI9H6I4",
        "filename": "TimePhoto_20260925_081328.jpg",
        "dt": "2026:09:25 08:13:28",
        "coords": [
          -39.09086166666667,
          -14.219936666666667
        ],
        "utm": {
          "zone": 24,
          "band": "L",
          "easting": 490197,
          "northing": 8427948
        },
        "dir": null,
        "caption": "Inspeção arqueológica da superfície exposta durante a limpeza da faixa de intervenção após a supressão vegetal semimecanizada",
        "created": 1790419662249,
        "hashArquivo_sha256": "69e0e4148bf82428eec2a0f96255165bc57b4ea5a065b06935df2af7178dcc0d",
        "gpsFonte": "ANDROID_EXIF_NATIVE",
        "exifJsStatus": "GPS_OK",
        "exifNativeStatus": "GPS_OK",
        "exifNativeModoLeitura": "FALLBACK_URI_APOS_ERRO_ORIGINAL",
        "exifNativeData": "2026:09:25 08:13:28",
        "exifNativeLat": -14.219936666666667,
        "exifNativeLon": -39.09086166666667
      },
      {
        "key": "MUI9H6I4_1790419662607_rvh5i4r2b3j",
        "recordId": "MUI9H6I4",
        "filename": "TimePhoto_20260925_154849.jpg",
        "dt": "2026:09:25 15:48:49",
        "coords": [
          -39.09175472222223,
          -14.220058333333334
        ],
        "utm": {
          "zone": 24,
          "band": "L",
          "easting": 490101,
          "northing": 8427934
        },
        "dir": null,
        "caption": "Escavação mecanizada na altura da estaca 1567, com carregamento do material removido durante o avanço do corte",
        "created": 1790419662608,
        "hashArquivo_sha256": "466160a5598692fefc8ac9dcafda17aa60fe5375b2a2de2b05134383ef8ad290",
        "gpsFonte": "ANDROID_EXIF_NATIVE",
        "exifJsStatus": "GPS_OK",
        "exifNativeStatus": "GPS_OK",
        "exifNativeModoLeitura": "FALLBACK_URI_APOS_ERRO_ORIGINAL",
        "exifNativeData": "2026:09:25 15:48:49",
        "exifNativeLat": -14.220058333333334,
        "exifNativeLon": -39.09175472222223
      },
      {
        "key": "MUI9H6I4_1790419662791_yye5d0v7zag",
        "recordId": "MUI9H6I4",
        "filename": "TimePhoto_20260925_155333.jpg",
        "dt": "2026:09:25 15:53:33",
        "coords": [
          -39.091661388888895,
          -14.220138333333333
        ],
        "utm": {
          "zone": 24,
          "band": "L",
          "easting": 490111,
          "northing": 8427925
        },
        "dir": null,
        "caption": "Acompanhamento arqueológico da frente de escavação na estaca 1567, com exposição de novos níveis subsuperficiais decorrentes do rebaixamento progressivo do terreno.",
        "created": 1790419662791,
        "hashArquivo_sha256": "170353e33e621b89f3678c274686ba2da0c45ffcbd3b189882d4e2d06d29f6d4",
        "gpsFonte": "ANDROID_EXIF_NATIVE",
        "exifJsStatus": "GPS_OK",
        "exifNativeStatus": "GPS_OK",
        "exifNativeModoLeitura": "FALLBACK_URI_APOS_ERRO_ORIGINAL",
        "exifNativeData": "2026:09:25 15:53:33",
        "exifNativeLat": -14.220138333333333,
        "exifNativeLon": -39.091661388888895
      }
    ]
  }
}