{
  "type": "FeatureCollection",
  "name": "imagens_pontos",
  "crs": {
    "type": "name",
    "properties": {
      "name": "urn:ogc:def:crs:OGC:1.3:CRS84"
    }
  },
  "features": [
    {
      "type": "Feature",
      "id": "TimePhoto_20260921_081913.jpg",
      "properties": {
        "nome": "TimePhoto_20260921_081913",
        "arquivo": "TimePhoto_20260921_081913.jpg",
        "caminho": "IMGS/TimePhoto_20260921_081913.jpg",
        "lat": -14.22272,
        "lon": -39.09305472222223,
        "latlon": "-14.222720, -39.093055",
        "utm": "24L 489961 8427640",
        "utm_zone": 24,
        "utm_band": "L",
        "utm_easting": 489961,
        "utm_northing": 8427640,
        "utm_hemisphere": "S",
        "data": "21/09/2026",
        "horario": "08:19",
        "legenda": "Execução do corte lateral à BR-030, com exposição progressiva dos níveis subsuperficiais e início da conformação do talude",
        "hash_md5": null,
        "hash_sha256": "04f26fd682e67d838edfe2f62a3f66faf9af86abf5de4846ee5c7d5f28afcd22",
        "origem_coordenadas": "ANDROID_EXIF_NATIVE",
        "exif_js_status": "GPS_OK",
        "exif_native_status": "GPS_OK",
        "exif_native_modo_leitura": "FALLBACK_URI_APOS_ERRO_ORIGINAL",
        "duplicata_local_sha256": false,
        "grupo_duplicata_sha256": ""
      },
      "geometry": {
        "type": "Point",
        "coordinates": [
          -39.09305472222223,
          -14.22272
        ]
      }
    },
    {
      "type": "Feature",
      "id": "TimePhoto_20260921_083933.jpg",
      "properties": {
        "nome": "TimePhoto_20260921_083933",
        "arquivo": "TimePhoto_20260921_083933.jpg",
        "caminho": "IMGS/TimePhoto_20260921_083933.jpg",
        "lat": -14.222501666666666,
        "lon": -39.09302138888889,
        "latlon": "-14.222502, -39.093021",
        "utm": "24L 489964 8427664",
        "utm_zone": 24,
        "utm_band": "L",
        "utm_easting": 489964,
        "utm_northing": 8427664,
        "utm_hemisphere": "S",
        "data": "21/09/2026",
        "horario": "08:39",
        "legenda": "Detalhe da retirada mecanizada de solo e regularização da vertente no trecho monitorado",
        "hash_md5": null,
        "hash_sha256": "490d2c1bc7b21fad7cf37a0a8113f8ce6be5c0c5e9b1236aa56b4ef5b4782429",
        "origem_coordenadas": "ANDROID_EXIF_NATIVE",
        "exif_js_status": "GPS_OK",
        "exif_native_status": "GPS_OK",
        "exif_native_modo_leitura": "FALLBACK_URI_APOS_ERRO_ORIGINAL",
        "duplicata_local_sha256": false,
        "grupo_duplicata_sha256": ""
      },
      "geometry": {
        "type": "Point",
        "coordinates": [
          -39.09302138888889,
          -14.222501666666666
        ]
      }
    },
    {
      "type": "Feature",
      "id": "TimePhoto_20260921_140531.jpg",
      "properties": {
        "nome": "TimePhoto_20260921_140531",
        "arquivo": "TimePhoto_20260921_140531.jpg",
        "caminho": "IMGS/TimePhoto_20260921_140531.jpg",
        "lat": -14.22272,
        "lon": -39.093024722222225,
        "latlon": "-14.222720, -39.093025",
        "utm": "24L 489964 8427640",
        "utm_zone": 24,
        "utm_band": "L",
        "utm_easting": 489964,
        "utm_northing": 8427640,
        "utm_hemisphere": "S",
        "data": "21/09/2026",
        "horario": "14:05",
        "legenda": "Conformação mecanizada do talude, evidenciando a regularização progressiva da superfície após a remoção do material",
        "hash_md5": null,
        "hash_sha256": "0bbd326be18bb5d9cedbb1332d8e904b26580b6d528ff7468c458452235f2546",
        "origem_coordenadas": "ANDROID_EXIF_NATIVE",
        "exif_js_status": "GPS_OK",
        "exif_native_status": "GPS_OK",
        "exif_native_modo_leitura": "FALLBACK_URI_APOS_ERRO_ORIGINAL",
        "duplicata_local_sha256": false,
        "grupo_duplicata_sha256": ""
      },
      "geometry": {
        "type": "Point",
        "coordinates": [
          -39.093024722222225,
          -14.22272
        ]
      }
    },
    {
      "type": "Feature",
      "id": "TimePhoto_20260921_163240.jpg",
      "properties": {
        "nome": "TimePhoto_20260921_163240",
        "arquivo": "TimePhoto_20260921_163240.jpg",
        "caminho": "IMGS/TimePhoto_20260921_163240.jpg",
        "lat": -14.223183333333333,
        "lon": -39.09292666666667,
        "latlon": "-14.223183, -39.092927",
        "utm": "24L 489975 8427588",
        "utm_zone": 24,
        "utm_band": "L",
        "utm_easting": 489975,
        "utm_northing": 8427588,
        "utm_hemisphere": "S",
        "data": "21/09/2026",
        "horario": "16:32",
        "legenda": "Inspeção arqueológica da superfície recém-exposta durante o avanço dos serviços de corte e conformação do talude",
        "hash_md5": null,
        "hash_sha256": "85d78c60e9e15d19501c0bdbee1749463953f787ccf979a0e46d5912e0c790b2",
        "origem_coordenadas": "ANDROID_EXIF_NATIVE",
        "exif_js_status": "GPS_OK",
        "exif_native_status": "GPS_OK",
        "exif_native_modo_leitura": "FALLBACK_URI_APOS_ERRO_ORIGINAL",
        "duplicata_local_sha256": false,
        "grupo_duplicata_sha256": ""
      },
      "geometry": {
        "type": "Point",
        "coordinates": [
          -39.09292666666667,
          -14.223183333333333
        ]
      }
    }
  ],
  "ficha": {
    "id": "MU8HTS49",
    "dataCampo": "2026-09-21",
    "horaIni": "07:15",
    "horaFim": "16:45",
    "atividade": "Monitoramento",
    "categoria": "ADA",
    "projeto": "Rodovia Br 030/Ba: Entroncamento Ba 001 - Maraú – Ba",
    "localidade": "Maraú - BA",
    "empresaExecutora": "HAS CONSULTORIA",
    "fichaNumero": "2",
    "coordenadasTexto": null,
    "coordCampo": "Carlos Rocha",
    "arqResp": "Carlos Rocha",
    "cargoResponsavel": "Arqueólogo",
    "trecho": "Estacas 1543 a 1550",
    "tipoIntervencao": "Outros",
    "tipoIntervencaoOutro": "corte e conformação de talude",
    "tipoAcao": "corte e conformação de talude",
    "clima": "Ensolarado",
    "climaOutro": null,
    "vegetacao": null,
    "relevo": null,
    "solo": "Argiloso / Argilo-arenoso",
    "granulometria": "Média",
    "vestigios": "NAO",
    "tipoEvidencia": null,
    "materiaisEncontrados": null,
    "tipoMaterial": null,
    "tipoMaterialOutro": null,
    "coleta": "NAO",
    "amostrasAnalise": null,
    "fotografias": null,
    "croquis": null,
    "houveAlteracaoContexto": null,
    "medidasAdotadas": null,
    "interrupcaoAtividade": null,
    "motivoInterrupcao": null,
    "observacoesRecomendacoes": null,
    "observacoesExtras": null,
    "desc": "O acompanhamento arqueológico concentrou-se nos serviços de corte e conformação de talude executados no trecho da BR-030 compreendido entre as estacas 1543 a 1550, onde a escavadeira hidráulica promoveu a retirada progressiva de volumes de solo e a regularização da encosta lateral à rodovia, expondo sucessivamente níveis subsuperficiais de coloração predominantemente avermelhada e permitindo, à medida que avançava a intervenção, a observação direta tanto das superfícies recém-cortadas quanto do material deslocado pela operação; nesse contexto, o acompanhamento foi realizado de forma concomitante à movimentação mecanizada, mediante inspeção visual sistemática das áreas expostas, do talude em formação e dos sedimentos mobilizados, buscando reconhecer eventuais materiais, feições ou alterações sedimentares que pudessem indicar ocorrência de interesse arqueológico, ao mesmo tempo em que se registraram as modificações produzidas pela terraplenagem sobre a configuração original da vertente.",
    "obs": null,
    "modeloDocx": "HAS_ACOMPANHAMENTO",
    "status": "COMPLETED",
    "tradagens": [],
    "imagens_sem_gps": []
  },
  "app_restore": {
    "kind": "FichaCampoWebView_HAS_RECORD_BACKUP",
    "backupVersion": 1,
    "appVersion": "v24",
    "exportedAt": "2026-09-22T21:19:38.070Z",
    "dbName": "fichacampo_v_final_corrigido",
    "record": {
      "id": "MU8HTS49",
      "status": "COMPLETED",
      "createdAt": 1789828752554,
      "updatedAt": 1790111873960,
      "dataCampo": "2026-09-21",
      "horaIni": "07:15",
      "horaFim": "16:45",
      "atividade": "Monitoramento",
      "categoria": "ADA",
      "projeto": "Rodovia Br 030/Ba: Entroncamento Ba 001 - Maraú – Ba",
      "localidade": "Maraú - BA",
      "empresaExecutora": "HAS CONSULTORIA",
      "fichaNumero": "2",
      "coordenadasTexto": "",
      "coordCampo": "Carlos Rocha",
      "arqResp": "Carlos Rocha",
      "cargoResponsavel": "Arqueólogo",
      "tipoAcao": "corte e conformação de talude",
      "trecho": "Estacas 1543 a 1550",
      "tipoIntervencao": "Outros",
      "tipoIntervencaoOutro": "corte e conformação de talude",
      "clima": "Ensolarado",
      "climaOutro": "",
      "vegetacao": "",
      "relevo": "",
      "solo": "Argiloso / Argilo-arenoso",
      "granulometria": "Média",
      "vestigios": "NAO",
      "tipoEvidencia": "",
      "materiaisEncontrados": "",
      "tipoMaterial": "",
      "tipoMaterialOutro": "",
      "coleta": "NAO",
      "amostrasAnalise": "",
      "fotografias": "",
      "croquis": "",
      "houveAlteracaoContexto": "",
      "medidasAdotadas": "",
      "interrupcaoAtividade": "",
      "motivoInterrupcao": "",
      "observacoesRecomendacoes": "",
      "observacoesExtras": "",
      "desc": "O acompanhamento arqueológico concentrou-se nos serviços de corte e conformação de talude executados no trecho da BR-030 compreendido entre as estacas 1543 a 1550, onde a escavadeira hidráulica promoveu a retirada progressiva de volumes de solo e a regularização da encosta lateral à rodovia, expondo sucessivamente níveis subsuperficiais de coloração predominantemente avermelhada e permitindo, à medida que avançava a intervenção, a observação direta tanto das superfícies recém-cortadas quanto do material deslocado pela operação; nesse contexto, o acompanhamento foi realizado de forma concomitante à movimentação mecanizada, mediante inspeção visual sistemática das áreas expostas, do talude em formação e dos sedimentos mobilizados, buscando reconhecer eventuais materiais, feições ou alterações sedimentares que pudessem indicar ocorrência de interesse arqueológico, ao mesmo tempo em que se registraram as modificações produzidas pela terraplenagem sobre a configuração original da vertente.",
      "obs": "",
      "modeloDocx": "HAS_ACOMPANHAMENTO",
      "tradagens": []
    },
    "images": [
      {
        "key": "MU8HTS49_1790111184590_ph845stkiqc",
        "recordId": "MU8HTS49",
        "filename": "TimePhoto_20260921_081913.jpg",
        "dt": "2026:09:21 08:19:13",
        "coords": [
          -39.09305472222223,
          -14.22272
        ],
        "utm": {
          "zone": 24,
          "band": "L",
          "easting": 489961,
          "northing": 8427640
        },
        "dir": null,
        "caption": "Execução do corte lateral à BR-030, com exposição progressiva dos níveis subsuperficiais e início da conformação do talude",
        "created": 1790111184590,
        "hashArquivo_sha256": "04f26fd682e67d838edfe2f62a3f66faf9af86abf5de4846ee5c7d5f28afcd22",
        "gpsFonte": "ANDROID_EXIF_NATIVE",
        "exifJsStatus": "GPS_OK",
        "exifNativeStatus": "GPS_OK",
        "exifNativeModoLeitura": "FALLBACK_URI_APOS_ERRO_ORIGINAL",
        "exifNativeData": "2026:09:21 08:19:13",
        "exifNativeLat": -14.22272,
        "exifNativeLon": -39.09305472222223
      },
      {
        "key": "MU8HTS49_1790111184888_ccu330gooww",
        "recordId": "MU8HTS49",
        "filename": "TimePhoto_20260921_083933.jpg",
        "dt": "2026:09:21 08:39:33",
        "coords": [
          -39.09302138888889,
          -14.222501666666666
        ],
        "utm": {
          "zone": 24,
          "band": "L",
          "easting": 489964,
          "northing": 8427664
        },
        "dir": null,
        "caption": "Detalhe da retirada mecanizada de solo e regularização da vertente no trecho monitorado",
        "created": 1790111184888,
        "hashArquivo_sha256": "490d2c1bc7b21fad7cf37a0a8113f8ce6be5c0c5e9b1236aa56b4ef5b4782429",
        "gpsFonte": "ANDROID_EXIF_NATIVE",
        "exifJsStatus": "GPS_OK",
        "exifNativeStatus": "GPS_OK",
        "exifNativeModoLeitura": "FALLBACK_URI_APOS_ERRO_ORIGINAL",
        "exifNativeData": "2026:09:21 08:39:33",
        "exifNativeLat": -14.222501666666666,
        "exifNativeLon": -39.09302138888889
      },
      {
        "key": "MU8HTS49_1790111185260_r40dtgnd58s",
        "recordId": "MU8HTS49",
        "filename": "TimePhoto_20260921_140531.jpg",
        "dt": "2026:09:21 14:05:31",
        "coords": [
          -39.093024722222225,
          -14.22272
        ],
        "utm": {
          "zone": 24,
          "band": "L",
          "easting": 489964,
          "northing": 8427640
        },
        "dir": null,
        "caption": "Conformação mecanizada do talude, evidenciando a regularização progressiva da superfície após a remoção do material",
        "created": 1790111185260,
        "hashArquivo_sha256": "0bbd326be18bb5d9cedbb1332d8e904b26580b6d528ff7468c458452235f2546",
        "gpsFonte": "ANDROID_EXIF_NATIVE",
        "exifJsStatus": "GPS_OK",
        "exifNativeStatus": "GPS_OK",
        "exifNativeModoLeitura": "FALLBACK_URI_APOS_ERRO_ORIGINAL",
        "exifNativeData": "2026:09:21 14:05:31",
        "exifNativeLat": -14.22272,
        "exifNativeLon": -39.093024722222225
      },
      {
        "key": "MU8HTS49_1790111185663_mbzzg7ejtl",
        "recordId": "MU8HTS49",
        "filename": "TimePhoto_20260921_163240.jpg",
        "dt": "2026:09:21 16:32:40",
        "coords": [
          -39.09292666666667,
          -14.223183333333333
        ],
        "utm": {
          "zone": 24,
          "band": "L",
          "easting": 489975,
          "northing": 8427588
        },
        "dir": null,
        "caption": "Inspeção arqueológica da superfície recém-exposta durante o avanço dos serviços de corte e conformação do talude",
        "created": 1790111185663,
        "hashArquivo_sha256": "85d78c60e9e15d19501c0bdbee1749463953f787ccf979a0e46d5912e0c790b2",
        "gpsFonte": "ANDROID_EXIF_NATIVE",
        "exifJsStatus": "GPS_OK",
        "exifNativeStatus": "GPS_OK",
        "exifNativeModoLeitura": "FALLBACK_URI_APOS_ERRO_ORIGINAL",
        "exifNativeData": "2026:09:21 16:32:40",
        "exifNativeLat": -14.223183333333333,
        "exifNativeLon": -39.09292666666667
      }
    ]
  }
}