{
  "type": "FeatureCollection",
  "name": "imagens_pontos",
  "crs": {
    "type": "name",
    "properties": {
      "name": "urn:ogc:def:crs:OGC:1.3:CRS84"
    }
  },
  "features": [
    {
      "type": "Feature",
      "id": "TimePhoto_20260924_080308.jpg",
      "properties": {
        "nome": "TimePhoto_20260924_080308",
        "arquivo": "TimePhoto_20260924_080308.jpg",
        "caminho": "IMGS/TimePhoto_20260924_080308.jpg",
        "lat": -14.219865,
        "lon": -39.09067972222223,
        "latlon": "-14.219865, -39.090680",
        "utm": "24L 490217 8427956",
        "utm_zone": 24,
        "utm_band": "L",
        "utm_easting": 490217,
        "utm_northing": 8427956,
        "utm_hemisphere": "S",
        "data": "24/09/2026",
        "horario": "08:03",
        "legenda": "Supressão vegetal semimecanizada, com seccionamento e movimentação do material lenhoso na faixa de intervenção",
        "hash_md5": null,
        "hash_sha256": "993e1a6d4fdd78a8167b0ccbc7a911e17d21675ac9e61e74b8f9c341f73eb048",
        "origem_coordenadas": "ANDROID_EXIF_NATIVE",
        "exif_js_status": "GPS_OK",
        "exif_native_status": "GPS_OK",
        "exif_native_modo_leitura": "FALLBACK_URI_APOS_ERRO_ORIGINAL",
        "duplicata_local_sha256": false,
        "grupo_duplicata_sha256": ""
      },
      "geometry": {
        "type": "Point",
        "coordinates": [
          -39.09067972222223,
          -14.219865
        ]
      }
    },
    {
      "type": "Feature",
      "id": "TimePhoto_20260924_090742.jpg",
      "properties": {
        "nome": "TimePhoto_20260924_090742",
        "arquivo": "TimePhoto_20260924_090742.jpg",
        "caminho": "IMGS/TimePhoto_20260924_090742.jpg",
        "lat": -14.21877138888889,
        "lon": -39.088195,
        "latlon": "-14.218771, -39.088195",
        "utm": "24L 490485 8428077",
        "utm_zone": 24,
        "utm_band": "L",
        "utm_easting": 490485,
        "utm_northing": 8428077,
        "utm_hemisphere": "S",
        "data": "24/09/2026",
        "horario": "09:07",
        "legenda": "Frente de serviço durante a limpeza superficial junto à margem da BR-030, com mobilização da vegetação residual e liberação progressiva da faixa de intervenção",
        "hash_md5": null,
        "hash_sha256": "d95539110b10b3df73f1b63375f65f093e76110d40e7dac90d46f89cf6098d0a",
        "origem_coordenadas": "ANDROID_EXIF_NATIVE",
        "exif_js_status": "GPS_OK",
        "exif_native_status": "GPS_OK",
        "exif_native_modo_leitura": "FALLBACK_URI_APOS_ERRO_ORIGINAL",
        "duplicata_local_sha256": false,
        "grupo_duplicata_sha256": ""
      },
      "geometry": {
        "type": "Point",
        "coordinates": [
          -39.088195,
          -14.21877138888889
        ]
      }
    },
    {
      "type": "Feature",
      "id": "TimePhoto_20260924_090751.jpg",
      "properties": {
        "nome": "TimePhoto_20260924_090751",
        "arquivo": "TimePhoto_20260924_090751.jpg",
        "caminho": "IMGS/TimePhoto_20260924_090751.jpg",
        "lat": -14.21877138888889,
        "lon": -39.088195,
        "latlon": "-14.218771, -39.088195",
        "utm": "24L 490485 8428077",
        "utm_zone": 24,
        "utm_band": "L",
        "utm_easting": 490485,
        "utm_northing": 8428077,
        "utm_hemisphere": "S",
        "data": "24/09/2026",
        "horario": "09:07",
        "legenda": "Vista da superfície após a supressão vegetal e a limpeza do trecho, evidenciando a faixa liberada para as etapas subsequentes da intervenção",
        "hash_md5": null,
        "hash_sha256": "1396ab04ee7248a3bd6167c77d987f1209554c7adadd95cb0b611d5782db5e75",
        "origem_coordenadas": "ANDROID_EXIF_NATIVE",
        "exif_js_status": "GPS_OK",
        "exif_native_status": "GPS_OK",
        "exif_native_modo_leitura": "FALLBACK_URI_APOS_ERRO_ORIGINAL",
        "duplicata_local_sha256": false,
        "grupo_duplicata_sha256": ""
      },
      "geometry": {
        "type": "Point",
        "coordinates": [
          -39.088195,
          -14.21877138888889
        ]
      }
    },
    {
      "type": "Feature",
      "id": "TimePhoto_20260924_161902.jpg",
      "properties": {
        "nome": "TimePhoto_20260924_161902",
        "arquivo": "TimePhoto_20260924_161902.jpg",
        "caminho": "IMGS/TimePhoto_20260924_161902.jpg",
        "lat": -14.219873055555556,
        "lon": -39.09068805555556,
        "latlon": "-14.219873, -39.090688",
        "utm": "24L 490216 8427955",
        "utm_zone": 24,
        "utm_band": "L",
        "utm_easting": 490216,
        "utm_northing": 8427955,
        "utm_hemisphere": "S",
        "data": "24/09/2026",
        "horario": "16:19",
        "legenda": "Remoção e organização mecanizada dos resíduos vegetais e elementos lenhosos provenientes da supressão",
        "hash_md5": null,
        "hash_sha256": "31348c20140e347a551b88a14b1581c1c950064e47167b4a0005673d6148207b",
        "origem_coordenadas": "ANDROID_EXIF_NATIVE",
        "exif_js_status": "GPS_OK",
        "exif_native_status": "GPS_OK",
        "exif_native_modo_leitura": "FALLBACK_URI_APOS_ERRO_ORIGINAL",
        "duplicata_local_sha256": false,
        "grupo_duplicata_sha256": ""
      },
      "geometry": {
        "type": "Point",
        "coordinates": [
          -39.09068805555556,
          -14.219873055555556
        ]
      }
    }
  ],
  "ficha": {
    "id": "MUG36RXZ",
    "dataCampo": "2026-09-24",
    "horaIni": "07:30",
    "horaFim": "16:15",
    "atividade": "Monitoramento",
    "categoria": "ADA",
    "projeto": "Rodovia Br 030/Ba: Entroncamento Ba 001 - Maraú – Ba",
    "localidade": "Maraú - BA",
    "empresaExecutora": "HAS CONSULTORIA",
    "fichaNumero": "5",
    "coordenadasTexto": null,
    "coordCampo": "Carlos Rocha",
    "arqResp": "Carlos Rocha",
    "cargoResponsavel": "Arqueólogo",
    "trecho": "Estacas 1569 a 1572",
    "tipoIntervencao": "Supressão Vegetal",
    "tipoIntervencaoOutro": "supressão vegetal semimecanizada e limpeza superficial",
    "tipoAcao": "supressão vegetal semimecanizada e limpeza superficial ",
    "clima": "Ensolarado",
    "climaOutro": null,
    "vegetacao": null,
    "relevo": null,
    "solo": null,
    "granulometria": null,
    "vestigios": "NAO",
    "tipoEvidencia": null,
    "materiaisEncontrados": null,
    "tipoMaterial": null,
    "tipoMaterialOutro": null,
    "coleta": "NAO",
    "amostrasAnalise": null,
    "fotografias": null,
    "croquis": null,
    "houveAlteracaoContexto": null,
    "medidasAdotadas": null,
    "interrupcaoAtividade": null,
    "motivoInterrupcao": null,
    "observacoesRecomendacoes": null,
    "observacoesExtras": null,
    "desc": "O acompanhamento arqueológico concentrou-se em duas frentes de intervenção ao longo da BR-030. Entre as estacas 1569 a 1572, foram acompanhadas as atividades de supressão vegetal semimecanizada e limpeza superficial, envolvendo o corte e seccionamento da vegetação, a movimentação dos elementos lenhosos de maior porte e a retirada e organização dos resíduos vegetais remanescentes, processo que promoveu a liberação progressiva da faixa de intervenção e ampliou a visibilidade das superfícies anteriormente recobertas; concomitantemente, procedeu-se à inspeção das áreas expostas e dos pontos sujeitos à movimentação superficial do solo, com atenção à eventual presença de materiais, feições ou alterações sedimentares de interesse arqueológico. Na sequência foi iniciado o acompanhamento da supressão vegetal mecanizada, cuja execução, entretanto, foi interrompida por volta das 9h em decorrência de falha no equipamento empregado, restringindo o avanço da atividade às áreas efetivamente intervencionadas antes da paralisação da frente de serviço.",
    "obs": null,
    "modeloDocx": "HAS_ACOMPANHAMENTO",
    "status": "DRAFT",
    "tradagens": [],
    "imagens_sem_gps": []
  },
  "app_restore": {
    "kind": "FichaCampoWebView_HAS_RECORD_BACKUP",
    "backupVersion": 1,
    "appVersion": "v24",
    "exportedAt": "2026-09-26T14:25:33.738Z",
    "dbName": "fichacampo_v_final_corrigido",
    "record": {
      "id": "MUG36RXZ",
      "status": "DRAFT",
      "createdAt": 1790287894522,
      "updatedAt": 1790432671307,
      "dataCampo": "2026-09-24",
      "horaIni": "07:30",
      "horaFim": "16:15",
      "atividade": "Monitoramento",
      "categoria": "ADA",
      "projeto": "Rodovia Br 030/Ba: Entroncamento Ba 001 - Maraú – Ba",
      "localidade": "Maraú - BA",
      "empresaExecutora": "HAS CONSULTORIA",
      "fichaNumero": "5",
      "coordenadasTexto": "",
      "coordCampo": "Carlos Rocha",
      "arqResp": "Carlos Rocha",
      "cargoResponsavel": "Arqueólogo",
      "tipoAcao": "supressão vegetal semimecanizada e limpeza superficial ",
      "trecho": "Estacas 1569 a 1572",
      "tipoIntervencao": "Supressão Vegetal",
      "tipoIntervencaoOutro": "supressão vegetal semimecanizada e limpeza superficial",
      "clima": "Ensolarado",
      "climaOutro": "",
      "vegetacao": "",
      "relevo": "",
      "solo": "",
      "granulometria": "",
      "vestigios": "NAO",
      "tipoEvidencia": "",
      "materiaisEncontrados": "",
      "tipoMaterial": "",
      "tipoMaterialOutro": "",
      "coleta": "NAO",
      "amostrasAnalise": "",
      "fotografias": "",
      "croquis": "",
      "houveAlteracaoContexto": "",
      "medidasAdotadas": "",
      "interrupcaoAtividade": "",
      "motivoInterrupcao": "",
      "observacoesRecomendacoes": "",
      "observacoesExtras": "",
      "desc": "O acompanhamento arqueológico concentrou-se em duas frentes de intervenção ao longo da BR-030. Entre as estacas 1569 a 1572, foram acompanhadas as atividades de supressão vegetal semimecanizada e limpeza superficial, envolvendo o corte e seccionamento da vegetação, a movimentação dos elementos lenhosos de maior porte e a retirada e organização dos resíduos vegetais remanescentes, processo que promoveu a liberação progressiva da faixa de intervenção e ampliou a visibilidade das superfícies anteriormente recobertas; concomitantemente, procedeu-se à inspeção das áreas expostas e dos pontos sujeitos à movimentação superficial do solo, com atenção à eventual presença de materiais, feições ou alterações sedimentares de interesse arqueológico. Na sequência foi iniciado o acompanhamento da supressão vegetal mecanizada, cuja execução, entretanto, foi interrompida por volta das 9h em decorrência de falha no equipamento empregado, restringindo o avanço da atividade às áreas efetivamente intervencionadas antes da paralisação da frente de serviço.",
      "obs": "",
      "modeloDocx": "HAS_ACOMPANHAMENTO",
      "tradagens": []
    },
    "images": [
      {
        "key": "MUG36RXZ_1790288013050_0f7xo72ew5ef",
        "recordId": "MUG36RXZ",
        "filename": "TimePhoto_20260924_080308.jpg",
        "dt": "2026:09:24 08:03:08",
        "coords": [
          -39.09067972222223,
          -14.219865
        ],
        "utm": {
          "zone": 24,
          "band": "L",
          "easting": 490217,
          "northing": 8427956
        },
        "dir": null,
        "caption": "Supressão vegetal semimecanizada, com seccionamento e movimentação do material lenhoso na faixa de intervenção",
        "created": 1790288013050,
        "hashArquivo_sha256": "993e1a6d4fdd78a8167b0ccbc7a911e17d21675ac9e61e74b8f9c341f73eb048",
        "gpsFonte": "ANDROID_EXIF_NATIVE",
        "exifJsStatus": "GPS_OK",
        "exifNativeStatus": "GPS_OK",
        "exifNativeModoLeitura": "FALLBACK_URI_APOS_ERRO_ORIGINAL",
        "exifNativeData": "2026:09:24 08:03:08",
        "exifNativeLat": -14.219865,
        "exifNativeLon": -39.09067972222223
      },
      {
        "key": "MUG36RXZ_1790288013560_6tmbvij2pr2",
        "recordId": "MUG36RXZ",
        "filename": "TimePhoto_20260924_090742.jpg",
        "dt": "2026:09:24 09:07:42",
        "coords": [
          -39.088195,
          -14.21877138888889
        ],
        "utm": {
          "zone": 24,
          "band": "L",
          "easting": 490485,
          "northing": 8428077
        },
        "dir": null,
        "caption": "Frente de serviço durante a limpeza superficial junto à margem da BR-030, com mobilização da vegetação residual e liberação progressiva da faixa de intervenção",
        "created": 1790288013560,
        "hashArquivo_sha256": "d95539110b10b3df73f1b63375f65f093e76110d40e7dac90d46f89cf6098d0a",
        "gpsFonte": "ANDROID_EXIF_NATIVE",
        "exifJsStatus": "GPS_OK",
        "exifNativeStatus": "GPS_OK",
        "exifNativeModoLeitura": "FALLBACK_URI_APOS_ERRO_ORIGINAL",
        "exifNativeData": "2026:09:24 09:07:42",
        "exifNativeLat": -14.21877138888889,
        "exifNativeLon": -39.088195
      },
      {
        "key": "MUG36RXZ_1790288014017_t2tysokdd7a",
        "recordId": "MUG36RXZ",
        "filename": "TimePhoto_20260924_090751.jpg",
        "dt": "2026:09:24 09:07:51",
        "coords": [
          -39.088195,
          -14.21877138888889
        ],
        "utm": {
          "zone": 24,
          "band": "L",
          "easting": 490485,
          "northing": 8428077
        },
        "dir": null,
        "caption": "Vista da superfície após a supressão vegetal e a limpeza do trecho, evidenciando a faixa liberada para as etapas subsequentes da intervenção",
        "created": 1790288014018,
        "hashArquivo_sha256": "1396ab04ee7248a3bd6167c77d987f1209554c7adadd95cb0b611d5782db5e75",
        "gpsFonte": "ANDROID_EXIF_NATIVE",
        "exifJsStatus": "GPS_OK",
        "exifNativeStatus": "GPS_OK",
        "exifNativeModoLeitura": "FALLBACK_URI_APOS_ERRO_ORIGINAL",
        "exifNativeData": "2026:09:24 09:07:51",
        "exifNativeLat": -14.21877138888889,
        "exifNativeLon": -39.088195
      },
      {
        "key": "MUG36RXZ_1790288014561_ueqbips5mtg",
        "recordId": "MUG36RXZ",
        "filename": "TimePhoto_20260924_161902.jpg",
        "dt": "2026:09:24 16:19:02",
        "coords": [
          -39.09068805555556,
          -14.219873055555556
        ],
        "utm": {
          "zone": 24,
          "band": "L",
          "easting": 490216,
          "northing": 8427955
        },
        "dir": null,
        "caption": "Remoção e organização mecanizada dos resíduos vegetais e elementos lenhosos provenientes da supressão",
        "created": 1790288014561,
        "hashArquivo_sha256": "31348c20140e347a551b88a14b1581c1c950064e47167b4a0005673d6148207b",
        "gpsFonte": "ANDROID_EXIF_NATIVE",
        "exifJsStatus": "GPS_OK",
        "exifNativeStatus": "GPS_OK",
        "exifNativeModoLeitura": "FALLBACK_URI_APOS_ERRO_ORIGINAL",
        "exifNativeData": "2026:09:24 16:19:02",
        "exifNativeLat": -14.219873055555556,
        "exifNativeLon": -39.09068805555556
      }
    ]
  }
}